[
    {
        "Altitude(m)": 702931.40361649,
        "Argument of Periapsis(deg)": 0.006834072711976239,
        "Eccentricity": 0.0,
        "Inclination(deg)": 45.0,
        "Latitude(deg)": 4.8601425683019945,
        "Longitude(deg)": -100.60048230003594,
        "Mean Anomaly(deg)": -353.08007001151145,
        "RAAN(deg)": 354.9935488351251,
        "Satellite Name": "Constellation 1 1562",
        "Satellite Number": 1562,
        "Semi-Major Axis(m)": 7083131.272910544,
        "Time(s)": 114
    },
    {
        "Altitude(m)": 702928.1518030107,
        "Argument of Periapsis(deg)": 0.006894020718221645,
        "Eccentricity": 0.0,
        "Inclination(deg)": 45.0,
        "Latitude(deg)": 4.903205993727852,
        "Longitude(deg)": -100.56141597212812,
        "Mean Anomaly(deg)": -353.0193688712616,
        "RAAN(deg)": 354.9934922459595,
        "Satellite Name": "Constellation 1 1562",
        "Satellite Number": 1562,
        "Semi-Major Axis(m)": 7083131.272910544,
        "Time(s)": 115
    },
    {
        "Altitude(m)": 702924.9207694237,
        "Argument of Periapsis(deg)": 0.006953968724467052,
        "Eccentricity": 0.0,
        "Inclination(deg)": 45.0,
        "Latitude(deg)": 4.946266631187479,
        "Longitude(deg)": -100.52234406118424,
        "Mean Anomaly(deg)": -352.9586677310117,
        "RAAN(deg)": 354.9934356567939,
        "Satellite Name": "Constellation 1 1562",
        "Satellite Number": 1562,
        "Semi-Major Axis(m)": 7083131.272910544,
        "Time(s)": 116
    },
    {
        "Altitude(m)": 702921.7105115011,
        "Argument of Periapsis(deg)": 0.007013916730712457,
        "Eccentricity": 0.0,
        "Inclination(deg)": 45.0,
        "Latitude(deg)": 4.989324455114721,
        "Longitude(deg)": -100.48326651816346,
        "Mean Anomaly(deg)": -352.8979665907619,
        "RAAN(deg)": 354.9933790676284,
        "Satellite Name": "Constellation 1 1562",
        "Satellite Number": 1562,
        "Semi-Major Axis(m)": 7083131.272910544,
        "Time(s)": 117
    },
    {
        "Altitude(m)": 702918.5210249122,
        "Argument of Periapsis(deg)": 0.007073864736957864,
        "Eccentricity": 0.0,
        "Inclination(deg)": 45.0,
        "Latitude(deg)": 5.0323794399325665,
        "Longitude(deg)": -100.44418329401218,
        "Mean Anomaly(deg)": -352.83726545051195,
        "RAAN(deg)": 354.9933224784628,
        "Satellite Name": "Constellation 1 1562",
        "Satellite Number": 1562,
        "Semi-Major Axis(m)": 7083131.272910544,
        "Time(s)": 118
    },
    {
        "Altitude(m)": 702915.3523052516,
        "Argument of Periapsis(deg)": 0.0071338127432032696,
        "Eccentricity": 0.0,
        "Inclination(deg)": 45.0,
        "Latitude(deg)": 5.075431560053256,
        "Longitude(deg)": -100.40509450776113,
        "Mean Anomaly(deg)": -352.776564310262,
        "RAAN(deg)": 354.9932658892973,
        "Satellite Name": "Constellation 1 1562",
        "Satellite Number": 1562,
        "Semi-Major Axis(m)": 7083131.272910544,
        "Time(s)": 119
    },
    {
        "Altitude(m)": 702912.2043480092,
        "Argument of Periapsis(deg)": 0.007193760749448674,
        "Eccentricity": 0.0,
        "Inclination(deg)": 45.0,
        "Latitude(deg)": 5.1184807898774975,
        "Longitude(deg)": -100.36599977413756,
        "Mean Anomaly(deg)": -352.71586317001214,
        "RAAN(deg)": 354.99320930013164,
        "Satellite Name": "Constellation 1 1562",
        "Satellite Number": 1562,
        "Semi-Major Axis(m)": 7083131.272910544,
        "Time(s)": 120
    },
    {
        "Altitude(m)": 702909.077148588,
        "Argument of Periapsis(deg)": 0.007253708755694079,
        "Eccentricity": 0.0,
        "Inclination(deg)": 45.0,
        "Latitude(deg)": 5.161527103795465,
        "Longitude(deg)": -100.32689921214627,
        "Mean Anomaly(deg)": -352.6551620297622,
        "RAAN(deg)": 354.99315271096606,
        "Satellite Name": "Constellation 1 1562",
        "Satellite Number": 1562,
        "Semi-Major Axis(m)": 7083131.272910544,
        "Time(s)": 121
    },
    {
        "Altitude(m)": 702905.9707022955,
        "Argument of Periapsis(deg)": 0.0073136567619394854,
        "Eccentricity": 0.0,
        "Inclination(deg)": 45.0,
        "Latitude(deg)": 5.204570476185982,
        "Longitude(deg)": -100.28779277268244,
        "Mean Anomaly(deg)": -352.59446088951233,
        "RAAN(deg)": 354.99309612180053,
        "Satellite Name": "Constellation 1 1562",
        "Satellite Number": 1562,
        "Semi-Major Axis(m)": 7083131.272910544,
        "Time(s)": 122
    },
    {
        "Altitude(m)": 702902.885004359,
        "Argument of Periapsis(deg)": 0.0073736047681848904,
        "Eccentricity": 0.0,
        "Inclination(deg)": 45.0,
        "Latitude(deg)": 5.247610881416425,
        "Longitude(deg)": -100.24868040662813,
        "Mean Anomaly(deg)": -352.5337597492624,
        "RAAN(deg)": 354.99303953263495,
        "Satellite Name": "Constellation 1 1562",
        "Satellite Number": 1562,
        "Semi-Major Axis(m)": 7083131.272910544,
        "Time(s)": 123
    },
    {
        "Altitude(m)": 702899.8200498988,
        "Argument of Periapsis(deg)": 0.007433552774430298,
        "Eccentricity": 0.0,
        "Inclination(deg)": 45.0,
        "Latitude(deg)": 5.290648293842993,
        "Longitude(deg)": -100.209562064852,
        "Mean Anomaly(deg)": -352.4730586090125,
        "RAAN(deg)": 354.99298294346937,
        "Satellite Name": "Constellation 1 1562",
        "Satellite Number": 1562,
        "Semi-Major Axis(m)": 7083131.272910544,
        "Time(s)": 124
    },
    {
        "Altitude(m)": 702896.7758339507,
        "Argument of Periapsis(deg)": 0.007493500780675703,
        "Eccentricity": 0.0,
        "Inclination(deg)": 45.0,
        "Latitude(deg)": 5.333682687810298,
        "Longitude(deg)": -100.17043769820967,
        "Mean Anomaly(deg)": -352.4123574687626,
        "RAAN(deg)": 354.99292635430385,
        "Satellite Name": "Constellation 1 1562",
        "Satellite Number": 1562,
        "Semi-Major Axis(m)": 7083131.272910544,
        "Time(s)": 125
    },
    {
        "Altitude(m)": 702893.7523514659,
        "Argument of Periapsis(deg)": 0.007553448786921108,
        "Eccentricity": 0.0,
        "Inclination(deg)": 45.0,
        "Latitude(deg)": 5.37671403765142,
        "Longitude(deg)": -100.13130742564033,
        "Mean Anomaly(deg)": -352.3516563285127,
        "RAAN(deg)": 354.9928697651382,
        "Satellite Name": "Constellation 1 1562",
        "Satellite Number": 1562,
        "Semi-Major Axis(m)": 7083131.272910544,
        "Time(s)": 126
    },
    {
        "Altitude(m)": 702890.7495972904,
        "Argument of Periapsis(deg)": 0.007613396793166514,
        "Eccentricity": 0.0,
        "Inclination(deg)": 45.0,
        "Latitude(deg)": 5.419742317687619,
        "Longitude(deg)": -100.09217086177847,
        "Mean Anomaly(deg)": -352.29095518826284,
        "RAAN(deg)": 354.9928131759727,
        "Satellite Name": "Constellation 1 1562",
        "Satellite Number": 1562,
        "Semi-Major Axis(m)": 7083131.272910544,
        "Time(s)": 127
    },
    {
        "Altitude(m)": 702887.7675661913,
        "Argument of Periapsis(deg)": 0.007673344799411918,
        "Eccentricity": 0.0,
        "Inclination(deg)": 45.0,
        "Latitude(deg)": 5.4627675022286715,
        "Longitude(deg)": -100.05302812553607,
        "Mean Anomaly(deg)": -352.2302540480129,
        "RAAN(deg)": 354.9927565868071,
        "Satellite Name": "Constellation 1 1562",
        "Satellite Number": 1562,
        "Semi-Major Axis(m)": 7083131.272910544,
        "Time(s)": 128
    },
    {
        "Altitude(m)": 702884.8062528354,
        "Argument of Periapsis(deg)": 0.007733292805657325,
        "Eccentricity": 0.0,
        "Inclination(deg)": 45.0,
        "Latitude(deg)": 5.505789565572358,
        "Longitude(deg)": -100.01387916771438,
        "Mean Anomaly(deg)": -352.16955290776303,
        "RAAN(deg)": 354.9926999976415,
        "Satellite Name": "Constellation 1 1562",
        "Satellite Number": 1562,
        "Semi-Major Axis(m)": 7083131.272910544,
        "Time(s)": 129
    },
    {
        "Altitude(m)": 702881.8656518068,
        "Argument of Periapsis(deg)": 0.00779324081190273,
        "Eccentricity": 0.0,
        "Inclination(deg)": 45.0,
        "Latitude(deg)": 5.548808482004485,
        "Longitude(deg)": -99.97472393910088,
        "Mean Anomaly(deg)": -352.10885176751316,
        "RAAN(deg)": 354.992643408476,
        "Satellite Name": "Constellation 1 1562",
        "Satellite Number": 1562,
        "Semi-Major Axis(m)": 7083131.272910544,
        "Time(s)": 130
    },
    {
        "Altitude(m)": 702878.9457575831,
        "Argument of Periapsis(deg)": 0.007853188818148135,
        "Eccentricity": 0.0,
        "Inclination(deg)": 45.0,
        "Latitude(deg)": 5.591824225798962,
        "Longitude(deg)": -99.93556239046929,
        "Mean Anomaly(deg)": -352.0481506272632,
        "RAAN(deg)": 354.9925868193104,
        "Satellite Name": "Constellation 1 1562",
        "Satellite Number": 1562,
        "Semi-Major Axis(m)": 7083131.272910544,
        "Time(s)": 131
    },
    {
        "Altitude(m)": 702876.0465645738,
        "Argument of Periapsis(deg)": 0.007913136824393542,
        "Eccentricity": 0.0,
        "Inclination(deg)": 45.0,
        "Latitude(deg)": 5.634836771217349,
        "Longitude(deg)": -99.89639447257906,
        "Mean Anomaly(deg)": -351.9874494870133,
        "RAAN(deg)": 354.99253023014484,
        "Satellite Name": "Constellation 1 1562",
        "Satellite Number": 1562,
        "Semi-Major Axis(m)": 7083131.272910544,
        "Time(s)": 132
    }
]